GLOBAL-2                
1 43812U 18099BG  26193.54257933  .00001252  00000+0  83393-4 0  9993
2 43812  97.3547 229.0016 0007550  74.5757 285.6306 15.08816851415730
GLOBAL-4                
1 44499U 19054E   26193.98202454  .00044855  00000+0  41389-3 0  9997
2 44499  45.0059  87.2867 0005001 181.6116 178.4767 15.66910360384409
GLOBAL-9                
1 47971U 21023G   26193.95189976  .00016739  00000+0  32427-3 0  9997
2 47971  44.9824 105.6057 0003110 152.2834 207.8222 15.47554402298936
GLOBAL-14               
1 49469U 21106A   26194.22645278  .00017286  00000+0  28515-3 0  9997
2 49469  42.0027 136.1860 0017461 210.9439 149.0377 15.51760575262172
GLOBAL-12               
1 49772U 21115BA  26193.85648329  .00027390  00000+0  40346-3 0  9995
2 49772  53.1952 280.9648 0002752  70.6953 289.4357 15.55237714259890
GLOBAL-13               
1 49773U 21115BB  26194.29216738  .00012865  00000+0  25826-3 0  9997
2 49773  53.1976 290.3970 0000819 156.1627 203.9420 15.47060644259800
GLOBAL-17               
1 49949U 21120A   26194.26374722  .00017808  00000+0  27496-3 0  9990
2 49949  41.9940 253.7476 0013396  75.7169 284.5163 15.53651536258953
GLOBAL-16               
1 49950U 21120B   26193.54089701  .00016457  00000+0  27624-3 0  9994
2 49950  41.9943 262.2834 0011564  59.6715 300.5272 15.51399124258785
GLOBAL-18               
1 52196U 22034B   26194.23024430  .00014709  00000+0  29288-3 0  9996
2 52196  52.9804 132.0865 0004350  18.3325 341.7837 15.47165251240996
GLOBAL-19               
1 55982U 23041B   26194.00355035  .00009634  00000+0  25300-3 0  9996
2 55982  42.0024  51.2695 0009325 204.1950 155.8453 15.38645913185900
GLOBAL-5                
1 55983U 23041C   26193.97133182  .00009207  00000+0  24210-3 0  9994
2 55983  42.0016  50.9840 0008154 199.5354 160.5175 15.38658156185901
